{
  "type": "FeatureCollection",
  "features": [
    {
      "type": "Feature",
      "properties": {
        "norad_id": 39586,
        "name": "COSMOS 2251 DEB",
        "group": "cosmos-2251-debris",
        "lat": 18.208589335412682,
        "lon": -118.26265512101915,
        "alt_km": 749.5471218683406,
        "timestamp": "2025-12-08T05:48:09.431862+00:00",
        "meta_object_name": "COSMOS 2251 DEB",
        "meta_object_id": "1993-036BUR",
        "meta_epoch": "2025-12-04T00:26:07.876608",
        "meta_mean_motion": 14.21195867,
        "meta_eccentricity": 0.01003221,
        "meta_inclination": 74.0095,
        "meta_ra_of_asc_node": 243.9042,
        "meta_arg_of_pericenter": 20.3845,
        "meta_mean_anomaly": 357.5964,
        "meta_ephemeris_type": 0,
        "meta_classification_type": "U",
        "meta_norad_cat_id": 39586,
        "meta_element_set_no": 999,
        "meta_rev_at_epoch": 60848,
        "meta_bstar": 0.00088936605,
        "meta_mean_motion_dot": 2.011e-05,
        "meta_mean_motion_ddot": 0,
        "tle_line1": "1 39586U 93036BUR 25338.01814672  .00002011  00000+0  88937-3 0  9993",
        "tle_line2": "2 39586  74.0095 243.9042 0100322  20.3845 357.5964 14.21195867608481"
      },
      "geometry": {
        "type": "Point",
        "coordinates": [
          -118.26265512101915,
          18.208589335412682
        ]
      }
    },
    {
      "type": "Feature",
      "properties": {
        "norad_id": 39591,
        "name": "COSMOS 2251 DEB",
        "group": "cosmos-2251-debris",
        "lat": -61.37081625527949,
        "lon": -136.56446858081992,
        "alt_km": 754.2534338836213,
        "timestamp": "2025-12-08T05:48:09.431872+00:00",
        "meta_object_name": "COSMOS 2251 DEB",
        "meta_object_id": "1993-036BUW",
        "meta_epoch": "2025-12-07T12:37:20.058240",
        "meta_mean_motion": 14.41797082,
        "meta_eccentricity": 0.00291403,
        "meta_inclination": 74.0183,
        "meta_ra_of_asc_node": 256.4312,
        "meta_arg_of_pericenter": 11.534,
        "meta_mean_anomaly": 168.8103,
        "meta_ephemeris_type": 0,
        "meta_classification_type": "U",
        "meta_norad_cat_id": 39591,
        "meta_element_set_no": 999,
        "meta_rev_at_epoch": 61701,
        "meta_bstar": 0.00067199948,
        "meta_mean_motion_dot": 2.18e-05,
        "meta_mean_motion_ddot": 0,
        "tle_line1": "1 39591U 93036BUW 25341.52592660  .00002180  00000+0  67200-3 0  9996",
        "tle_line2": "2 39591  74.0183 256.4312 0029140  11.5340 168.8103 14.41797082617010"
      },
      "geometry": {
        "type": "Point",
        "coordinates": [
          -136.56446858081992,
          -61.37081625527949
        ]
      }
    },
    {
      "type": "Feature",
      "properties": {
        "norad_id": 40218,
        "name": "COSMOS 2251 DEB",
        "group": "cosmos-2251-debris",
        "lat": -11.642985373699297,
        "lon": 80.54821787617388,
        "alt_km": 767.3213496337057,
        "timestamp": "2025-12-08T05:48:09.431882+00:00",
        "meta_object_name": "COSMOS 2251 DEB",
        "meta_object_id": "1993-036BUX",
        "meta_epoch": "2025-12-02T02:20:48.132384",
        "meta_mean_motion": 14.41546301,
        "meta_eccentricity": 0.00163619,
        "meta_inclination": 74.0309,
        "meta_ra_of_asc_node": 268.5457,
        "meta_arg_of_pericenter": 353.795,
        "meta_mean_anomaly": 6.3,
        "meta_ephemeris_type": 0,
        "meta_classification_type": "U",
        "meta_norad_cat_id": 40218,
        "meta_element_set_no": 999,
        "meta_rev_at_epoch": 58708,
        "meta_bstar": 0.00047133972,
        "meta_mean_motion_dot": 1.508e-05,
        "meta_mean_motion_ddot": 0,
        "tle_line1": "1 40218U 93036BUX 25336.09777931  .00001508  00000+0  47134-3 0  9993",
        "tle_line2": "2 40218  74.0309 268.5457 0016361 353.7950   6.3000 14.41546301587082"
      },
      "geometry": {
        "type": "Point",
        "coordinates": [
          80.54821787617388,
          -11.642985373699297
        ]
      }
    },
    {
      "type": "Feature",
      "properties": {
        "norad_id": 40223,
        "name": "COSMOS 2251 DEB",
        "group": "cosmos-2251-debris",
        "lat": -60.24213192385766,
        "lon": -51.79723351139711,
        "alt_km": 558.6989933434115,
        "timestamp": "2025-12-08T05:48:09.431892+00:00",
        "meta_object_name": "COSMOS 2251 DEB",
        "meta_object_id": "1993-036BVC",
        "meta_epoch": "2025-12-07T14:23:17.625984",
        "meta_mean_motion": 15.02685334,
        "meta_eccentricity": 0.00145666,
        "meta_inclination": 73.9397,
        "meta_ra_of_asc_node": 99.2638,
        "meta_arg_of_pericenter": 297.6758,
        "meta_mean_anomaly": 73.879,
        "meta_ephemeris_type": 0,
        "meta_classification_type": "U",
        "meta_norad_cat_id": 40223,
        "meta_element_set_no": 999,
        "meta_rev_at_epoch": 59297,
        "meta_bstar": 0.0080871493,
        "meta_mean_motion_dot": 0.00109838,
        "meta_mean_motion_ddot": 0,
        "tle_line1": "1 40223U 93036BVC 25341.59950956  .00109838  00000+0  80871-2 0  9999",
        "tle_line2": "2 40223  73.9397  99.2638 0014566 297.6758  73.8790 15.02685334592977"
      },
      "geometry": {
        "type": "Point",
        "coordinates": [
          -51.79723351139711,
          -60.24213192385766
        ]
      }
    },
    {
      "type": "Feature",
      "properties": {
        "norad_id": 40228,
        "name": "COSMOS 2251 DEB",
        "group": "cosmos-2251-debris",
        "lat": 73.88360284784497,
        "lon": 7.159501879751041,
        "alt_km": 756.6729216945823,
        "timestamp": "2025-12-08T05:48:09.431902+00:00",
        "meta_object_name": "COSMOS 2251 DEB",
        "meta_object_id": "1993-036BVH",
        "meta_epoch": "2025-12-07T13:33:16.737984",
        "meta_mean_motion": 14.40975918,
        "meta_eccentricity": 0.00238751,
        "meta_inclination": 74.0543,
        "meta_ra_of_asc_node": 270.0925,
        "meta_arg_of_pericenter": 332.416,
        "meta_mean_anomaly": 209.1246,
        "meta_ephemeris_type": 0,
        "meta_classification_type": "U",
        "meta_norad_cat_id": 40228,
        "meta_element_set_no": 999,
        "meta_rev_at_epoch": 58846,
        "meta_bstar": 0.0006394623,
        "meta_mean_motion_dot": 2.035e-05,
        "meta_mean_motion_ddot": 0,
        "tle_line1": "1 40228U 93036BVH 25341.56477706  .00002035  00000+0  63946-3 0  9994",
        "tle_line2": "2 40228  74.0543 270.0925 0023875 332.4160 209.1246 14.40975918588463"
      },
      "geometry": {
        "type": "Point",
        "coordinates": [
          7.159501879751041,
          73.88360284784497
        ]
      }
    },
    {
      "type": "Feature",
      "properties": {
        "norad_id": 40230,
        "name": "COSMOS 2251 DEB",
        "group": "cosmos-2251-debris",
        "lat": 56.18520022355014,
        "lon": 30.04037267793703,
        "alt_km": 735.7384381437978,
        "timestamp": "2025-12-08T05:48:09.431912+00:00",
        "meta_object_name": "COSMOS 2251 DEB",
        "meta_object_id": "1993-036BVK",
        "meta_epoch": "2025-12-05T11:49:12.794880",
        "meta_mean_motion": 14.49259606,
        "meta_eccentricity": 0.00191133,
        "meta_inclination": 74.0458,
        "meta_ra_of_asc_node": 240.4744,
        "meta_arg_of_pericenter": 299.5216,
        "meta_mean_anomaly": 242.5097,
        "meta_ephemeris_type": 0,
        "meta_classification_type": "U",
        "meta_norad_cat_id": 40230,
        "meta_element_set_no": 999,
        "meta_rev_at_epoch": 58866,
        "meta_bstar": 0.0014637297,
        "meta_mean_motion_dot": 5.571e-05,
        "meta_mean_motion_ddot": 0,
        "tle_line1": "1 40230U 93036BVK 25339.49250920  .00005571  00000+0  14637-2 0  9993",
        "tle_line2": "2 40230  74.0458 240.4744 0019113 299.5216 242.5097 14.49259606588661"
      },
      "geometry": {
        "type": "Point",
        "coordinates": [
          30.04037267793703,
          56.18520022355014
        ]
      }
    },
    {
      "type": "Feature",
      "properties": {
        "norad_id": 40233,
        "name": "COSMOS 2251 DEB",
        "group": "cosmos-2251-debris",
        "lat": 22.037916849194083,
        "lon": -74.9779929551557,
        "alt_km": 669.6047058453523,
        "timestamp": "2025-12-08T05:48:09.431922+00:00",
        "meta_object_name": "COSMOS 2251 DEB",
        "meta_object_id": "1993-036BVN",
        "meta_epoch": "2025-12-04T02:17:52.292832",
        "meta_mean_motion": 14.58236674,
        "meta_eccentricity": 0.00461905,
        "meta_inclination": 73.9387,
        "meta_ra_of_asc_node": 119.6526,
        "meta_arg_of_pericenter": 195.886,
        "meta_mean_anomaly": 164.0859,
        "meta_ephemeris_type": 0,
        "meta_classification_type": "U",
        "meta_norad_cat_id": 40233,
        "meta_element_set_no": 999,
        "meta_rev_at_epoch": 59011,
        "meta_bstar": 0.0029314151,
        "meta_mean_motion_dot": 0.00013736,
        "meta_mean_motion_ddot": 0,
        "tle_line1": "1 40233U 93036BVN 25338.09574413  .00013736  00000+0  29314-2 0  9997",
        "tle_line2": "2 40233  73.9387 119.6526 0046190 195.8860 164.0859 14.58236674590113"
      },
      "geometry": {
        "type": "Point",
        "coordinates": [
          -74.9779929551557,
          22.037916849194083
        ]
      }
    }
  ]
}